NORAD_CAT_ID,OBJECT_NAME,OBJECT_TYPE,EPOCH,MEAN_MOTION,ECCENTRICITY,INCLINATION,RA_OF_ASC_NODE,ARG_OF_PERICENTER,MEAN_ANOMALY,BSTAR,MEAN_MOTION_DOT,MEAN_MOTION_DDOT,TLE_LINE0,TLE_LINE1,TLE_LINE2,SEMIMAJOR_AXIS,PERIOD,APOGEE,PERIGEE,DECAYED
50806.0,STARLINK-3335,PAYLOAD,2024-03-20 21:51:11,15.08840584,0.000185,53.2168,145.8467,76.5822,283.5376,5.0505e-05,5.16e-06,0.0,0 STARLINK-3335,1 50806U 22001D   24080.91055093  .00000516  00000-0  50505-4 0  9991,2 50806  53.2168 145.8467 0001850  76.5822 283.5376 15.08840584122030,6917.879,95.438,541.023,538.464,0.0
50806.0,STARLINK-3335,PAYLOAD,2024-03-21 10:34:16,15.08848434,0.0001708,53.2164,143.4676,86.7175,273.4013,-2.9658e-05,-7.6e-06,0.0,0 STARLINK-3335,1 50806U 22001D   24081.44046762 -.00000760  00000-0 -29658-4 0  9991,2 50806  53.2164 143.4676 0001708  86.7175 273.4013 15.08848434122115,6917.855,95.437,540.901,538.538,0.0
50806.0,STARLINK-3335,PAYLOAD,2024-03-22 04:03:30,15.08845695,0.0001787,53.216,140.1958,86.7344,273.3853,0.00017667,2.525e-05,0.0,0 STARLINK-3335,1 50806U 22001D   24082.16910398  .00002525  00000-0  17667-3 0  9991,2 50806  53.2160 140.1958 0001787  86.7344 273.3853 15.08845695123492,6917.863,95.437,540.964,538.492,0.0
50806.0,STARLINK-3335,PAYLOAD,2024-03-22 08:49:40,15.08851765,0.0001711,53.2158,139.3043,86.6863,273.4325,0.00030702,4.603e-05,0.0,0 STARLINK-3335,1 50806U 22001D   24082.36782425  .00004603  00000-0  30702-3 0  9995,2 50806  53.2158 139.3043 0001711  86.6863 273.4325 15.08851765122259,6917.844,95.437,540.893,538.526,0.0
50806.0,STARLINK-3335,PAYLOAD,2024-03-23 10:15:51,15.08829913,0.0001579,53.215,134.5442,97.6758,262.4414,-0.00011585,-2.131e-05,0.0,0 STARLINK-3335,1 50806U 22001D   24083.42767602 -.00002131  00000-0 -11585-3 0  9997,2 50806  53.2150 134.5442 0001579  97.6758 262.4414 15.08829913123683,6917.911,95.438,540.869,538.684,0.0
50806.0,STARLINK-3335,PAYLOAD,2024-03-24 10:06:37,15.08859739,0.0002034,53.2163,130.0906,110.2307,249.8904,0.0004526,6.926e-05,0.0,0 STARLINK-3335,1 50806U 22001D   24084.42126359  .00006926  00000-0  45260-3 0  9997,2 50806  53.2163 130.0906 0002034 110.2307 249.8904 15.08859739123831,6917.82,95.436,541.092,538.278,0.0
50806.0,STARLINK-3335,PAYLOAD,2024-03-24 19:38:55,15.08865902,8.92e-05,53.2141,128.2974,71.3997,288.7091,0.00069323,0.0001077,0.0,0 STARLINK-3335,1 50806U 22001D   24084.81870293  .00010770  00000-0  69323-3 0  9991,2 50806  53.2141 128.2974 0000892  71.3997 288.7091 15.08865902123897,6917.801,95.436,540.283,539.049,0.0
50806.0,STARLINK-3335,PAYLOAD,2024-03-25 03:35:53,15.08825897,0.0001246,53.2152,126.8108,84.1411,275.9723,-4.6183e-05,-1.022e-05,0.0,0 STARLINK-3335,1 50806U 22001D   24085.14992013 -.00001022  00000-0 -46183-4 0  9995,2 50806  53.2152 126.8108 0001246  84.1411 275.9723 15.08825897123944,6917.923,95.438,540.65,538.927,0.0
50806.0,STARLINK-3335,PAYLOAD,2024-03-25 09:57:25,15.08830137,0.0001826,53.2164,125.6293,109.7684,250.3505,-3.4216e-05,-8.32e-06,0.0,0 STARLINK-3335,1 50806U 22001D   24085.41487785 -.00000832  00000-0 -34216-4 0  9992,2 50806  53.2164 125.6293 0001826 109.7684 250.3505 15.08830137123981,6917.911,95.438,541.039,538.512,0.0
50806.0,STARLINK-3335,PAYLOAD,2024-03-25 19:29:44,15.08826396,0.0001445,53.2143,123.8418,99.1848,260.9308,-0.00020182,-3.497e-05,0.0,0 STARLINK-3335,1 50806U 22001D   24085.81232120 -.00003497  00000-0 -20182-3 0  9993,2 50806  53.2143 123.8418 0001445  99.1848 260.9308 15.08826396122774,6917.922,95.438,540.787,538.787,0.0
50806.0,STARLINK-3335,PAYLOAD,2024-03-26 11:23:35,15.08843463,0.0001263,53.2147,120.8638,87.0162,273.0975,0.00018863,2.716e-05,0.0,0 STARLINK-3335,1 50806U 22001D   24086.47471833  .00002716  00000-0  18863-3 0  9996,2 50806  53.2147 120.8638 0001263  87.0162 273.0975 15.08843463124144,6917.87,95.437,540.609,538.861,0.0
50806.0,STARLINK-3335,PAYLOAD,2024-03-26 19:20:31,15.08843768,0.0001306,53.2146,119.3771,83.6199,276.4942,0.0003206,4.819e-05,0.0,0 STARLINK-3335,1 50806U 22001D   24086.80591967  .00004819  00000-0  32060-3 0  9995,2 50806  53.2146 119.3771 0001306  83.6199 276.4942 15.08843768122927,6917.869,95.437,540.637,538.83,0.0
50806.0,STARLINK-3335,PAYLOAD,2024-03-27 09:38:59,15.08851897,0.0001389,53.2141,116.7029,86.2484,273.8667,0.00043803,6.692e-05,0.0,0 STARLINK-3335,1 50806U 22001D   24087.40207797  .00006692  00000-0  43803-3 0  9995,2 50806  53.2141 116.7029 0001389  86.2484 273.8667 15.08851897123014,6917.844,95.437,540.67,538.748,0.0
50806.0,STARLINK-3335,PAYLOAD,2024-03-27 19:11:18,15.08846367,0.0001481,53.2155,114.9196,86.9671,273.149,0.00024547,3.622e-05,0.0,0 STARLINK-3335,1 50806U 22001D   24087.79951855  .00003622  00000-0  24547-3 0  9992,2 50806  53.2155 114.9196 0001481  86.9671 273.1490 15.08846367124342,6917.861,95.437,540.75,538.701,0.0
50806.0,STARLINK-3335,PAYLOAD,2024-03-28 07:54:23,15.08837491,0.0001533,53.2168,112.5367,100.217,259.8995,7.0346e-05,8.32e-06,0.0,0 STARLINK-3335,1 50806U 22001D   24088.32944280  .00000832  00000-0  70346-4 0  9995,2 50806  53.2168 112.5367 0001533 100.2170 259.8995 15.08837491124420,6917.888,95.438,540.814,538.693,0.0
50806.0,STARLINK-3335,PAYLOAD,2024-03-28 19:02:05,15.08843344,0.0001511,53.2146,110.4565,98.3758,261.7405,1.1091e-05,-1.11e-06,0.0,0 STARLINK-3335,1 50806U 22001D   24088.79311952 -.00000111  00000-0  11091-4 0  9993,2 50806  53.2146 110.4565 0001511  98.3758 261.7405 15.08843344123227,6917.87,95.437,540.78,538.69,0.0
50806.0,STARLINK-3335,PAYLOAD,2024-03-29 07:45:10,15.08845686,0.0001494,53.2144,108.0784,95.9424,264.1738,8.6283e-05,1.086e-05,0.0,0 STARLINK-3335,1 50806U 22001D   24089.32303826  .00001086  00000-0  86283-4 0  9990,2 50806  53.2144 108.0784 0001494  95.9424 264.1738 15.08845686123300,6917.863,95.437,540.762,538.694,0.0
50806.0,STARLINK-3335,PAYLOAD,2024-03-30 04:25:11,15.08843716,0.000156,53.2143,104.2123,99.2128,260.9041,0.00021345,3.111e-05,0.0,0 STARLINK-3335,1 50806U 22001D   24090.18416007  .00003111  00000-0  21345-3 0  9990,2 50806  53.2143 104.2123 0001560  99.2128 260.9041 15.08843716124704,6917.869,95.437,540.813,538.655,0.0
50806.0,STARLINK-3335,PAYLOAD,2024-03-30 07:35:57,15.08845677,0.0001566,53.2144,103.6174,100.0791,260.0378,0.00022853,3.351e-05,0.0,0 STARLINK-3335,1 50806U 22001D   24090.31663897  .00003351  00000-0  22853-3 0  9997,2 50806  53.2144 103.6174 0001566 100.0791 260.0378 15.08845677123450,6917.863,95.437,540.811,538.645,0.0
50806.0,STARLINK-3335,PAYLOAD,2024-03-31 04:15:58,15.0883757,0.0001635,53.2151,99.7516,100.3529,259.7648,3.3463e-05,2.45e-06,0.0,0 STARLINK-3335,1 50806U 22001D   24091.17776345  .00000245  00000-0  33463-4 0  9994,2 50806  53.2151  99.7516 0001635 100.3529 259.7648 15.08837570124855,6917.888,95.438,540.884,538.622,0.0
50806.0,STARLINK-3335,PAYLOAD,2024-03-31 10:37:31,15.08841447,0.000151,53.2161,98.5636,99.1651,260.9512,6.2041e-05,7e-06,0.0,0 STARLINK-3335,1 50806U 22001D   24091.44272232  .00000700  00000-0  62041-4 0  9990,2 50806  53.2161  98.5636 0001510  99.1651 260.9512 15.08841447123625,6917.876,95.437,540.786,538.696,0.0
50806.0,STARLINK-3335,PAYLOAD,2024-03-31 16:59:03,15.08838485,0.0001511,53.2164,97.3733,96.9655,263.1509,6.0805e-05,6.8e-06,0.0,0 STARLINK-3335,1 50806U 22001D   24091.70768393  .00000680  00000-0  60805-4 0  9990,2 50806  53.2164  97.3733 0001511  96.9655 263.1509 15.08838485123666,6917.885,95.438,540.795,538.705,0.0
50806.0,STARLINK-3335,PAYLOAD,2024-04-01 10:28:17,15.08845042,0.000152,53.2162,94.103,100.584,259.5323,9.2046e-05,1.177e-05,0.0,0 STARLINK-3335,1 50806U 22001D   24092.43631894  .00001177  00000-0  92046-4 0  9990,2 50806  53.2162  94.1030 0001520 100.5840 259.5323 15.08845042125041,6917.865,95.437,540.781,538.678,0.0
50806.0,STARLINK-3335,PAYLOAD,2024-04-01 16:49:50,15.08838635,0.0001524,53.2165,92.9131,98.5536,261.5629,7.3577e-05,8.83e-06,0.0,0 STARLINK-3335,1 50806U 22001D   24092.70128365  .00000883  00000-0  73577-4 0  9995,2 50806  53.2165  92.9131 0001524  98.5536 261.5629 15.08838635125080,6917.885,95.438,540.804,538.695,0.0
50806.0,STARLINK-3335,PAYLOAD,2024-04-02 03:57:33,15.08833658,0.0001505,53.2171,90.8314,95.2015,264.9149,4.9518e-05,5e-06,0.0,0 STARLINK-3335,1 50806U 22001D   24093.16496954  .00000500  00000-0  49518-4 0  9992,2 50806  53.2171  90.8314 0001505  95.2015 264.9149 15.08833658125154,6917.9,95.438,540.806,538.724,0.0
50806.0,STARLINK-3335,PAYLOAD,2024-04-02 08:43:42,15.08837738,0.0001528,53.2172,89.9393,94.0438,266.0729,7.9353e-05,9.75e-06,0.0,0 STARLINK-3335,1 50806U 22001D   24093.36368659  .00000975  00000-0  79353-4 0  9990,2 50806  53.2172  89.9393 0001528  94.0438 266.0729 15.08837738123914,6917.887,95.438,540.809,538.695,0.0
50806.0,STARLINK-3335,PAYLOAD,2024-04-02 23:02:10,15.08837166,0.0001562,53.2173,87.2635,90.7583,269.3588,5.6875e-05,6.17e-06,0.0,0 STARLINK-3335,1 50806U 22001D   24093.95984895  .00000617  00000-0  56875-4 0  9998,2 50806  53.2173  87.2635 0001562  90.7583 269.3588 15.08837166124002,6917.889,95.438,540.835,538.673,0.0
50806.0,STARLINK-3335,PAYLOAD,2024-04-03 08:34:29,15.08839259,0.0001549,53.2174,85.479,88.386,271.731,2.3573e-05,8.7e-07,0.0,0 STARLINK-3335,1 50806U 22001D   24094.35728917  .00000087  00000-0  23573-4 0  9994,2 50806  53.2174  85.4790 0001549  88.3860 271.7310 15.08839259125333,6917.883,95.438,540.819,538.676,0.0
50806.0,STARLINK-3335,PAYLOAD,2024-04-03 16:31:25,15.08841576,0.0001565,53.2178,83.992,86.0366,274.0805,4.4682e-05,4.23e-06,0.0,0 STARLINK-3335,1 50806U 22001D   24094.68848692  .00000423  00000-0  44682-4 0  9991,2 50806  53.2178  83.9920 0001565  86.0366 274.0805 15.08841576124114,6917.876,95.437,540.823,538.658,0.0
50806.0,STARLINK-3335,PAYLOAD,2024-04-04 08:25:16,15.08846447,0.0001509,53.2174,81.0182,85.9118,274.2046,0.00011495,1.542e-05,0.0,0 STARLINK-3335,1 50806U 22001D   24095.35088117  .00001542  00000-0  11495-3 0  9992,2 50806  53.2174  81.0182 0001509  85.9118 274.2046 15.08846447125482,6917.861,95.437,540.77,538.682,0.0
